{
"type": "FeatureCollection",
"name": "Plan Mol 2026",
"crs": { "type": "name", "properties": { "name": "urn:ogc:def:crs:OGC:1.3:CRS84" } },
"features": [
{ "type": "Feature", "properties": { "id": null, "Name": "", "description": "descripción: <br>fid: 1<br>N°: 1<br>DISTRITO: STX<br>UBICACIÓN: Cantón La Cuchilla, Sector La Escuela<br>LATITUD: 13.633041<br>LONGITUD: -89.105454", "timestamp": null, "begin": null, "end": null, "altitudeMode": null, "tessellate": -1, "extrude": 0, "visibility": -1, "drawOrder": null, "icon": null, "descripci__n": "", "fid": "1", "N__": "1", "DISTRITO": "STX", "UBICACI__N": "Cantón La Cuchilla, Sector La Escuela", "LATITUD": "13.633041", "LONGITUD": "-89.105454" }, "geometry": { "type": "Point", "coordinates": [ -89.105454, 13.633041, 0.0 ] } },
{ "type": "Feature", "properties": { "id": null, "Name": "", "description": "descripción: <br>fid: 2<br>N°: 2<br>DISTRITO: STX<br>UBICACIÓN: Barrio El Carmen<br>LATITUD: 13.64172<br>LONGITUD: -89.116074", "timestamp": null, "begin": null, "end": null, "altitudeMode": null, "tessellate": -1, "extrude": 0, "visibility": -1, "drawOrder": null, "icon": null, "descripci__n": "", "fid": "2", "N__": "2", "DISTRITO": "STX", "UBICACI__N": "Barrio El Carmen", "LATITUD": "13.64172", "LONGITUD": "-89.116074" }, "geometry": { "type": "Point", "coordinates": [ -89.116074, 13.64172, 0.0 ] } },
{ "type": "Feature", "properties": { "id": null, "Name": "", "description": "descripción: <br>fid: 3<br>N°: 3<br>DISTRITO: STX<br>UBICACIÓN: Planes de Joya Grande<br>LATITUD: 13.660532<br>LONGITUD: -89.100151", "timestamp": null, "begin": null, "end": null, "altitudeMode": null, "tessellate": -1, "extrude": 0, "visibility": -1, "drawOrder": null, "icon": null, "descripci__n": "", "fid": "3", "N__": "3", "DISTRITO": "STX", "UBICACI__N": "Planes de Joya Grande", "LATITUD": "13.660532", "LONGITUD": "-89.100151" }, "geometry": { "type": "Point", "coordinates": [ -89.100151, 13.660532, 0.0 ] } },
{ "type": "Feature", "properties": { "id": null, "Name": "", "description": "descripción: <br>fid: 4<br>N°: 4<br>DISTRITO: PC<br>UBICACIÓN: Calle principal hacia cancha comunal de Sanat Lucia, palones<br>LATITUD: 13.634625<br>LONGITUD: -89.166042", "timestamp": null, "begin": null, "end": null, "altitudeMode": null, "tessellate": -1, "extrude": 0, "visibility": -1, "drawOrder": null, "icon": null, "descripci__n": "", "fid": "4", "N__": "4", "DISTRITO": "PC", "UBICACI__N": "Calle principal hacia cancha comunal de Sanat Lucia, palones", "LATITUD": "13.634625", "LONGITUD": "-89.166042" }, "geometry": { "type": "Point", "coordinates": [ -89.166042, 13.634625, 0.0 ] } },
{ "type": "Feature", "properties": { "id": null, "Name": "", "description": "descripción: <br>fid: 5<br>N°: 5<br>DISTRITO: PC<br>UBICACIÓN: Callé principal a casa comunal de míl cumbres<br>LATITUD: 13.615154<br>LONGITUD:  -89.201144", "timestamp": null, "begin": null, "end": null, "altitudeMode": null, "tessellate": -1, "extrude": 0, "visibility": -1, "drawOrder": null, "icon": null, "descripci__n": "", "fid": "5", "N__": "5", "DISTRITO": "PC", "UBICACI__N": "Callé principal a casa comunal de míl cumbres", "LATITUD": "13.615154", "LONGITUD": " -89.201144" }, "geometry": { "type": "Point", "coordinates": [ -89.201144, 13.615154, 0.0 ] } },
{ "type": "Feature", "properties": { "id": null, "Name": "", "description": "descripción: <br>fid: 6<br>N°: 6<br>DISTRITO: PC<br>UBICACIÓN: Callé principal de Quezalapa #2<br>LATITUD: 13.61027<br>LONGITUD: -89.201228", "timestamp": null, "begin": null, "end": null, "altitudeMode": null, "tessellate": -1, "extrude": 0, "visibility": -1, "drawOrder": null, "icon": null, "descripci__n": "", "fid": "6", "N__": "6", "DISTRITO": "PC", "UBICACI__N": "Callé principal de Quezalapa #2", "LATITUD": "13.61027", "LONGITUD": "-89.201228" }, "geometry": { "type": "Point", "coordinates": [ -89.201228, 13.61027, 0.0 ] } },
{ "type": "Feature", "properties": { "id": null, "Name": "", "description": "descripción: <br>fid: 7<br>N°: 7<br>DISTRITO: SM<br>UBICACIÓN: Colonia Azucena pasaje Domínguez<br>LATITUD: 13.65963<br>LONGITUD: -89.182743000000002", "timestamp": null, "begin": null, "end": null, "altitudeMode": null, "tessellate": -1, "extrude": 0, "visibility": -1, "drawOrder": null, "icon": null, "descripci__n": "", "fid": "7", "N__": "7", "DISTRITO": "SM", "UBICACI__N": "Colonia Azucena pasaje Domínguez", "LATITUD": "13.65963", "LONGITUD": "-89.182743000000002" }, "geometry": { "type": "Point", "coordinates": [ -89.182743, 13.65963, 0.0 ] } },
{ "type": "Feature", "properties": { "id": null, "Name": "", "description": "descripción: <br>fid: 8<br>N°: 8<br>DISTRITO: SM<br>UBICACIÓN: Lotificación Santa fe, Calle Principal<br>LATITUD: 13.659779<br>LONGITUD: -89.17577", "timestamp": null, "begin": null, "end": null, "altitudeMode": null, "tessellate": -1, "extrude": 0, "visibility": -1, "drawOrder": null, "icon": null, "descripci__n": "", "fid": "8", "N__": "8", "DISTRITO": "SM", "UBICACI__N": "Lotificación Santa fe, Calle Principal", "LATITUD": "13.659779", "LONGITUD": "-89.17577" }, "geometry": { "type": "Point", "coordinates": [ -89.17577, 13.659779, 0.0 ] } },
{ "type": "Feature", "properties": { "id": null, "Name": "", "description": "descripción: <br>fid: 9<br>N°: 9<br>DISTRITO: SM<br>UBICACIÓN: Colonia los ángeles, pasaje C<br>LATITUD: 13.654936<br>LONGITUD: -89.162661", "timestamp": null, "begin": null, "end": null, "altitudeMode": null, "tessellate": -1, "extrude": 0, "visibility": -1, "drawOrder": null, "icon": null, "descripci__n": "", "fid": "9", "N__": "9", "DISTRITO": "SM", "UBICACI__N": "Colonia los ángeles, pasaje C", "LATITUD": "13.654936", "LONGITUD": "-89.162661" }, "geometry": { "type": "Point", "coordinates": [ -89.162661, 13.654936, 0.0 ] } },
{ "type": "Feature", "properties": { "id": null, "Name": "", "description": "descripción: <br>fid: 10<br>N°: 10<br>DISTRITO: SM<br>UBICACIÓN: Colonia los andes 2, acceso principal<br>LATITUD: 13.671603<br>LONGITUD: -89.181361999999993", "timestamp": null, "begin": null, "end": null, "altitudeMode": null, "tessellate": -1, "extrude": 0, "visibility": -1, "drawOrder": null, "icon": null, "descripci__n": "", "fid": "10", "N__": "10", "DISTRITO": "SM", "UBICACI__N": "Colonia los andes 2, acceso principal", "LATITUD": "13.671603", "LONGITUD": "-89.181361999999993" }, "geometry": { "type": "Point", "coordinates": [ -89.181362, 13.671603, 0.0 ] } },
{ "type": "Feature", "properties": { "id": null, "Name": "", "description": "descripción: <br>fid: 11<br>N°: 11<br>DISTRITO: SM<br>UBICACIÓN: Lotificación altos de San Marcos, Calle Principal<br>LATITUD: 13.686805<br>LONGITUD: -89.178905", "timestamp": null, "begin": null, "end": null, "altitudeMode": null, "tessellate": -1, "extrude": 0, "visibility": -1, "drawOrder": null, "icon": null, "descripci__n": "", "fid": "11", "N__": "11", "DISTRITO": "SM", "UBICACI__N": "Lotificación altos de San Marcos, Calle Principal", "LATITUD": "13.686805", "LONGITUD": "-89.178905" }, "geometry": { "type": "Point", "coordinates": [ -89.186554, 13.670327, 0.0 ] } },
{ "type": "Feature", "properties": { "id": null, "Name": "", "description": "descripción: <br>fid: 12<br>N°: 12<br>DISTRITO: SM<br>UBICACIÓN: Lotificación Los Alpes 2 calle principal<br>LATITUD: 13.658993<br>LONGITUD: -89.167468999999997", "timestamp": null, "begin": null, "end": null, "altitudeMode": null, "tessellate": -1, "extrude": 0, "visibility": -1, "drawOrder": null, "icon": null, "descripci__n": "", "fid": "12", "N__": "12", "DISTRITO": "SM", "UBICACI__N": "Lotificación Los Alpes 2 calle principal", "LATITUD": "13.658993", "LONGITUD": "-89.167468999999997" }, "geometry": { "type": "Point", "coordinates": [ -89.167469, 13.658993, 0.0 ] } },
{ "type": "Feature", "properties": { "id": null, "Name": "", "description": "descripción: <br>fid: 13<br>N°: 13<br>DISTRITO: RM<br>UBICACIÓN: Canton el jutillo, sector la escuela<br>LATITUD: 13.582086<br>LONGITUD: -89.216251999999997", "timestamp": null, "begin": null, "end": null, "altitudeMode": null, "tessellate": -1, "extrude": 0, "visibility": -1, "drawOrder": null, "icon": null, "descripci__n": "", "fid": "13", "N__": "13", "DISTRITO": "RM", "UBICACI__N": "Canton el jutillo, sector la escuela", "LATITUD": "13.582086", "LONGITUD": "-89.216251999999997" }, "geometry": { "type": "Point", "coordinates": [ -89.216252, 13.582086, 0.0 ] } },
{ "type": "Feature", "properties": { "id": null, "Name": "", "description": "descripción: <br>fid: 14<br>N°: 14<br>DISTRITO: RM<br>UBICACIÓN: Canton el jutillo, comunidad la esperanza<br>LATITUD: 13.579722<br>LONGITUD: -89.208055999999999", "timestamp": null, "begin": null, "end": null, "altitudeMode": null, "tessellate": -1, "extrude": 0, "visibility": -1, "drawOrder": null, "icon": null, "descripci__n": "", "fid": "14", "N__": "14", "DISTRITO": "RM", "UBICACI__N": "Canton el jutillo, comunidad la esperanza", "LATITUD": "13.579722", "LONGITUD": "-89.208055999999999" }, "geometry": { "type": "Point", "coordinates": [ -89.208056, 13.579722, 0.0 ] } },
{ "type": "Feature", "properties": { "id": null, "Name": "", "description": "descripción: <br>fid: 15<br>N°: 15<br>DISTRITO: RM<br>UBICACIÓN: Casco Urbano, Comunidad la cañada<br>LATITUD: 13.576111<br>LONGITUD: -89.206666999999996", "timestamp": null, "begin": null, "end": null, "altitudeMode": null, "tessellate": -1, "extrude": 0, "visibility": -1, "drawOrder": null, "icon": null, "descripci__n": "", "fid": "15", "N__": "15", "DISTRITO": "RM", "UBICACI__N": "Casco Urbano, Comunidad la cañada", "LATITUD": "13.576111", "LONGITUD": "-89.206666999999996" }, "geometry": { "type": "Point", "coordinates": [ -89.206667, 13.576111, 0.0 ] } },
{ "type": "Feature", "properties": { "id": null, "Name": "", "description": "descripción: <br>fid: 16<br>N°: 16<br>DISTRITO: RM<br>UBICACIÓN: Casco urbano, Barrio el calvario.<br>LATITUD: 13.565833<br>LONGITUD: -89.209166999999994", "timestamp": null, "begin": null, "end": null, "altitudeMode": null, "tessellate": -1, "extrude": 0, "visibility": -1, "drawOrder": null, "icon": null, "descripci__n": "", "fid": "16", "N__": "16", "DISTRITO": "RM", "UBICACI__N": "Casco urbano, Barrio el calvario.", "LATITUD": "13.565833", "LONGITUD": "-89.209166999999994" }, "geometry": { "type": "Point", "coordinates": [ -89.209167, 13.565833, 0.0 ] } },
{ "type": "Feature", "properties": { "id": null, "Name": "", "description": "descripción: <br>fid: 17<br>N°: 17<br>DISTRITO: RM<br>UBICACIÓN: Cantón El Carrizal, Caserío El Cusuco.<br>LATITUD: 13.564444<br>LONGITUD: -89.202222000000006", "timestamp": null, "begin": null, "end": null, "altitudeMode": null, "tessellate": -1, "extrude": 0, "visibility": -1, "drawOrder": null, "icon": null, "descripci__n": "", "fid": "17", "N__": "17", "DISTRITO": "RM", "UBICACI__N": "Cantón El Carrizal, Caserío El Cusuco.", "LATITUD": "13.564444", "LONGITUD": "-89.202222000000006" }, "geometry": { "type": "Point", "coordinates": [ -89.202222, 13.564444, 0.0 ] } },
{ "type": "Feature", "properties": { "id": null, "Name": "", "description": "descripción: <br>fid: 18<br>N°: 18<br>DISTRITO: RM<br>UBICACIÓN: Caserio Las Margaritas<br>LATITUD: 13.555833<br>LONGITUD: -89.193055999999999", "timestamp": null, "begin": null, "end": null, "altitudeMode": null, "tessellate": -1, "extrude": 0, "visibility": -1, "drawOrder": null, "icon": null, "descripci__n": "", "fid": "18", "N__": "18", "DISTRITO": "RM", "UBICACI__N": "Caserio Las Margaritas", "LATITUD": "13.555833", "LONGITUD": "-89.193055999999999" }, "geometry": { "type": "Point", "coordinates": [ -89.193056, 13.555833, 0.0 ] } },
{ "type": "Feature", "properties": { "id": null, "Name": "", "description": "descripción: <br>fid: 19<br>N°: 19<br>DISTRITO: RM<br>UBICACIÓN: Comunidad El Guachipilin, Cantón Palo Grande.<br>LATITUD: 13.544444<br>LONGITUD: -89.220277999999993", "timestamp": null, "begin": null, "end": null, "altitudeMode": null, "tessellate": -1, "extrude": 0, "visibility": -1, "drawOrder": null, "icon": null, "descripci__n": "", "fid": "19", "N__": "19", "DISTRITO": "RM", "UBICACI__N": "Comunidad El Guachipilin, Cantón Palo Grande.", "LATITUD": "13.544444", "LONGITUD": "-89.220277999999993" }, "geometry": { "type": "Point", "coordinates": [ -89.220278, 13.544444, 0.0 ] } },
{ "type": "Feature", "properties": { "id": null, "Name": "", "description": "descripción: <br>fid: 20<br>N°: 20<br>DISTRITO: RM<br>UBICACIÓN:   Cantón Plan del Mango<br>LATITUD: 13.504167<br>LONGITUD: -89.196944000000002", "timestamp": null, "begin": null, "end": null, "altitudeMode": null, "tessellate": -1, "extrude": 0, "visibility": -1, "drawOrder": null, "icon": null, "descripci__n": "", "fid": "20", "N__": "20", "DISTRITO": "RM", "UBICACI__N": "  Cantón Plan del Mango", "LATITUD": "13.504167", "LONGITUD": "-89.196944000000002" }, "geometry": { "type": "Point", "coordinates": [ -89.196944, 13.504167, 0.0 ] } },
{ "type": "Feature", "properties": { "id": null, "Name": "", "description": "descripción: <br>fid: 21<br>N°: 21<br>DISTRITO: ST<br>UBICACIÓN: Cantón el Porvenir, sector el Paraíso.<br>LATITUD: 13.638662<br>LONGITUD: -89.143792000000005", "timestamp": null, "begin": null, "end": null, "altitudeMode": null, "tessellate": -1, "extrude": 0, "visibility": -1, "drawOrder": null, "icon": null, "descripci__n": "", "fid": "21", "N__": "21", "DISTRITO": "ST", "UBICACI__N": "Cantón el Porvenir, sector el Paraíso.", "LATITUD": "13.638662", "LONGITUD": "-89.143792000000005" }, "geometry": { "type": "Point", "coordinates": [ -89.143792, 13.638662, 0.0 ] } },
{ "type": "Feature", "properties": { "id": null, "Name": "", "description": "descripción: <br>fid: 22<br>N°: 22<br>DISTRITO: ST<br>UBICACIÓN: Cantón el Guaje, calle hacia la Ermita.<br>LATITUD: 13.620631<br>LONGITUD: -89.155872000000002", "timestamp": null, "begin": null, "end": null, "altitudeMode": null, "tessellate": -1, "extrude": 0, "visibility": -1, "drawOrder": null, "icon": null, "descripci__n": "", "fid": "22", "N__": "22", "DISTRITO": "ST", "UBICACI__N": "Cantón el Guaje, calle hacia la Ermita.", "LATITUD": "13.620631", "LONGITUD": "-89.155872000000002" }, "geometry": { "type": "Point", "coordinates": [ -89.155872, 13.620631, 0.0 ] } },
{ "type": "Feature", "properties": { "id": null, "Name": "", "description": "descripción: <br>fid: 23<br>N°: 23<br>DISTRITO: ST<br>UBICACIÓN: Lot. Brisas 1<br>LATITUD: 13.650264<br>LONGITUD: -89.155484999999999", "timestamp": null, "begin": null, "end": null, "altitudeMode": null, "tessellate": -1, "extrude": 0, "visibility": -1, "drawOrder": null, "icon": null, "descripci__n": "", "fid": "23", "N__": "23", "DISTRITO": "ST", "UBICACI__N": "Lot. Brisas 1", "LATITUD": "13.650264", "LONGITUD": "-89.155484999999999" }, "geometry": { "type": "Point", "coordinates": [ -89.155485, 13.650264, 0.0 ] } },
{ "type": "Feature", "properties": { "id": null, "Name": "", "description": "descripción: <br>fid: 24<br>N°: 24<br>DISTRITO: ST<br>UBICACIÓN: Col. Rosa María, pasaje 2<br>LATITUD: 13.63886<br>LONGITUD: -89.134311999999994", "timestamp": null, "begin": null, "end": null, "altitudeMode": null, "tessellate": -1, "extrude": 0, "visibility": -1, "drawOrder": null, "icon": null, "descripci__n": "", "fid": "24", "N__": "24", "DISTRITO": "ST", "UBICACI__N": "Col. Rosa María, pasaje 2", "LATITUD": "13.63886", "LONGITUD": "-89.134311999999994" }, "geometry": { "type": "Point", "coordinates": [ -89.134312, 13.63886, 0.0 ] } },
{ "type": "Feature", "properties": { "id": null, "Name": "", "description": "descripción: <br>fid: 25<br>N°: 25<br>DISTRITO: ST<br>UBICACIÓN: LOT. BRISAS DEL SUR<br>LATITUD: 13.641824<br>LONGITUD:  -89.137556", "timestamp": null, "begin": null, "end": null, "altitudeMode": null, "tessellate": -1, "extrude": 0, "visibility": -1, "drawOrder": null, "icon": null, "descripci__n": "", "fid": "25", "N__": "25", "DISTRITO": "ST", "UBICACI__N": "LOT. BRISAS DEL SUR", "LATITUD": "13.641824", "LONGITUD": " -89.137556" }, "geometry": { "type": "Point", "coordinates": [ -89.137556, 13.641824, 0.0 ] } },
{ "type": "Feature", "properties": { "id": null, "Name": "", "description": "descripción: <br>fid: 26<br>N°: 26<br>DISTRITO: ST<br>UBICACIÓN: Sector el Mango hacia Cantón Caña Brava<br>LATITUD: 13.64606<br>LONGITUD: -89.129075999999998", "timestamp": null, "begin": null, "end": null, "altitudeMode": null, "tessellate": -1, "extrude": 0, "visibility": -1, "drawOrder": null, "icon": null, "descripci__n": "", "fid": "26", "N__": "26", "DISTRITO": "ST", "UBICACI__N": "Sector el Mango hacia Cantón Caña Brava", "LATITUD": "13.64606", "LONGITUD": "-89.129075999999998" }, "geometry": { "type": "Point", "coordinates": [ -89.129076, 13.64606, 0.0 ] } },
{ "type": "Feature", "properties": { "id": null, "Name": "", "description": "descripción: <br>fid: 27<br>N°: 27<br>DISTRITO: ST<br>UBICACIÓN: Cantón Chaltepe Central<br>LATITUD: 13.64925<br>LONGITUD: -89.139107999999993", "timestamp": null, "begin": null, "end": null, "altitudeMode": null, "tessellate": -1, "extrude": 0, "visibility": -1, "drawOrder": null, "icon": null, "descripci__n": "", "fid": "27", "N__": "27", "DISTRITO": "ST", "UBICACI__N": "Cantón Chaltepe Central", "LATITUD": "13.64925", "LONGITUD": "-89.139107999999993" }, "geometry": { "type": "Point", "coordinates": [ -89.139108, 13.64925, 0.0 ] } },
{ "type": "Feature", "properties": { "id": null, "Name": "", "description": "descripción: <br>fid: 28<br>N°: 28<br>DISTRITO: ST<br>UBICACIÓN: Lot. Miramar, Palones<br>LATITUD: 13.633521<br>LONGITUD: -89.165098999999998", "timestamp": null, "begin": null, "end": null, "altitudeMode": null, "tessellate": -1, "extrude": 0, "visibility": -1, "drawOrder": null, "icon": null, "descripci__n": "", "fid": "28", "N__": "28", "DISTRITO": "ST", "UBICACI__N": "Lot. Miramar, Palones", "LATITUD": "13.633521", "LONGITUD": "-89.165098999999998" }, "geometry": { "type": "Point", "coordinates": [ -89.165099, 13.633521, 0.0 ] } },
{ "type": "Feature", "properties": { "id": null, "Name": "", "description": "descripción: <br>fid: 29<br>N°: 29<br>DISTRITO: ST<br>UBICACIÓN: Final de Calle Cantón el Carmen 2<br>LATITUD: 13.633862<br>LONGITUD: -89.134129999999999", "timestamp": null, "begin": null, "end": null, "altitudeMode": null, "tessellate": -1, "extrude": 0, "visibility": -1, "drawOrder": null, "icon": null, "descripci__n": "", "fid": "29", "N__": "29", "DISTRITO": "ST", "UBICACI__N": "Final de Calle Cantón el Carmen 2", "LATITUD": "13.633862", "LONGITUD": "-89.134129999999999" }, "geometry": { "type": "Point", "coordinates": [ -89.13413, 13.633862, 0.0 ] } },
{ "type": "Feature", "properties": { "id": null, "Name": "", "description": "descripción: <br>fid: 30<br>N°: 30<br>DISTRITO: ST<br>UBICACIÓN: casa comunal Col Flor Amarilla.<br>LATITUD: 13.645982<br>LONGITUD: -89.132157000000007", "timestamp": null, "begin": null, "end": null, "altitudeMode": null, "tessellate": -1, "extrude": 0, "visibility": -1, "drawOrder": null, "icon": null, "descripci__n": "", "fid": "30", "N__": "30", "DISTRITO": "ST", "UBICACI__N": "casa comunal Col Flor Amarilla.", "LATITUD": "13.645982", "LONGITUD": "-89.132157000000007" }, "geometry": { "type": "Point", "coordinates": [ -89.132157, 13.645982, 0.0 ] } }
]
}
